FENGYUN 1C DEB          
1 30542U 99025AKG 17345.96218538 -.00000158  00000-0 -68714-4 0  9997
2 30542  99.1195   2.7083 0027290 218.7258 204.3319 14.05685758558440
